{"fetched_at":"2026-07-09T08:00:22.776Z","source":"https://celestrak.org/NORAD/elements/gp.php?NAME=GLOBAL&FORMAT=JSON","constellation":"blacksky-gen2","records":[{"OBJECT_NAME":"GLOBAL-2","OBJECT_ID":"2018-099BG","EPOCH":"2026-07-08T21:28:49.498176","CLASSIFICATION_TYPE":"U","MEAN_MOTION":15.0880446,"ECCENTRICITY":0.00076801,"INCLINATION":97.3552,"RA_OF_ASC_NODE":225.5056,"ARG_OF_PERICENTER":84.2045,"MEAN_ANOMALY":276.0059,"EPHEMERIS_TYPE":0,"NORAD_CAT_ID":43812,"ELEMENT_SET_NO":999,"REV_AT_EPOCH":41518,"BSTAR":0.00012742415,"MEAN_MOTION_DOT":0.00001944,"MEAN_MOTION_DDOT":0},{"OBJECT_NAME":"GLOBAL-4","OBJECT_ID":"2019-054E","EPOCH":"2026-07-07T22:40:51.979584","CLASSIFICATION_TYPE":"U","MEAN_MOTION":15.66458654,"ECCENTRICITY":0.00043252,"INCLINATION":45.0043,"RA_OF_ASC_NODE":116.4508,"ARG_OF_PERICENTER":145.7131,"MEAN_ANOMALY":214.4047,"EPHEMERIS_TYPE":0,"NORAD_CAT_ID":44499,"ELEMENT_SET_NO":999,"REV_AT_EPOCH":38361,"BSTAR":0.0003522962,"MEAN_MOTION_DOT":0.00037372,"MEAN_MOTION_DDOT":0},{"OBJECT_NAME":"GLOBAL-9","OBJECT_ID":"2021-023G","EPOCH":"2026-07-08T05:45:01.802016","CLASSIFICATION_TYPE":"U","MEAN_MOTION":15.47400053,"ECCENTRICITY":0.00026485,"INCLINATION":44.9804,"RA_OF_ASC_NODE":132.1289,"ARG_OF_PERICENTER":115.2236,"MEAN_ANOMALY":244.8929,"EPHEMERIS_TYPE":0,"NORAD_CAT_ID":47971,"ELEMENT_SET_NO":999,"REV_AT_EPOCH":29820,"BSTAR":0.00028943457,"MEAN_MOTION_DOT":0.00014816,"MEAN_MOTION_DDOT":0},{"OBJECT_NAME":"GLOBAL-14","OBJECT_ID":"2021-106A","EPOCH":"2026-07-08T09:34:40.255392","CLASSIFICATION_TYPE":"U","MEAN_MOTION":15.51581768,"ECCENTRICITY":0.00164739,"INCLINATION":42.0026,"RA_OF_ASC_NODE":164.9224,"ARG_OF_PERICENTER":177.8259,"MEAN_ANOMALY":182.2659,"EPHEMERIS_TYPE":0,"NORAD_CAT_ID":49469,"ELEMENT_SET_NO":999,"REV_AT_EPOCH":26142,"BSTAR":0.00027991814,"MEAN_MOTION_DOT":0.00016839,"MEAN_MOTION_DDOT":0},{"OBJECT_NAME":"GLOBAL-12","OBJECT_ID":"2021-115BA","EPOCH":"2026-07-08T14:45:26.332704","CLASSIFICATION_TYPE":"U","MEAN_MOTION":15.55014776,"ECCENTRICITY":0.00026884,"INCLINATION":53.1955,"RA_OF_ASC_NODE":301.408,"ARG_OF_PERICENTER":67.9164,"MEAN_ANOMALY":292.2133,"EPHEMERIS_TYPE":0,"NORAD_CAT_ID":49772,"ELEMENT_SET_NO":999,"REV_AT_EPOCH":25923,"BSTAR":0.00041449195,"MEAN_MOTION_DOT":0.00027922,"MEAN_MOTION_DDOT":0},{"OBJECT_NAME":"GLOBAL-13","OBJECT_ID":"2021-115BB","EPOCH":"2026-07-08T23:07:40.132416","CLASSIFICATION_TYPE":"U","MEAN_MOTION":15.46937078,"ECCENTRICITY":0.00013574,"INCLINATION":53.1976,"RA_OF_ASC_NODE":311.0028,"ARG_OF_PERICENTER":154.0438,"MEAN_ANOMALY":206.0639,"EPHEMERIS_TYPE":0,"NORAD_CAT_ID":49773,"ELEMENT_SET_NO":999,"REV_AT_EPOCH":25913,"BSTAR":0.00029896277,"MEAN_MOTION_DOT":0.00014899,"MEAN_MOTION_DDOT":0},{"OBJECT_NAME":"GLOBAL-17","OBJECT_ID":"2021-120A","EPOCH":"2026-07-08T16:47:05.807328","CLASSIFICATION_TYPE":"U","MEAN_MOTION":15.53463778,"ECCENTRICITY":0.0013851,"INCLINATION":41.9947,"RA_OF_ASC_NODE":280.9991,"ARG_OF_PERICENTER":40.6824,"MEAN_ANOMALY":319.5053,"EPHEMERIS_TYPE":0,"NORAD_CAT_ID":49949,"ELEMENT_SET_NO":999,"REV_AT_EPOCH":25824,"BSTAR":0.00034941407,"MEAN_MOTION_DOT":0.00022584,"MEAN_MOTION_DDOT":0},{"OBJECT_NAME":"GLOBAL-16","OBJECT_ID":"2021-120B","EPOCH":"2026-07-08T17:49:12.364608","CLASSIFICATION_TYPE":"U","MEAN_MOTION":15.51258857,"ECCENTRICITY":0.00120841,"INCLINATION":41.9953,"RA_OF_ASC_NODE":284.8855,"ARG_OF_PERICENTER":30.2102,"MEAN_ANOMALY":329.9437,"EPHEMERIS_TYPE":0,"NORAD_CAT_ID":49950,"ELEMENT_SET_NO":999,"REV_AT_EPOCH":25819,"BSTAR":0.00034437597,"MEAN_MOTION_DOT":0.00020507,"MEAN_MOTION_DDOT":0},{"OBJECT_NAME":"GLOBAL-18","OBJECT_ID":"2022-034B","EPOCH":"2026-07-08T07:41:43.363392","CLASSIFICATION_TYPE":"U","MEAN_MOTION":15.47012171,"ECCENTRICITY":0.00042468,"INCLINATION":52.9807,"RA_OF_ASC_NODE":155.58,"ARG_OF_PERICENTER":5.6496,"MEAN_ANOMALY":354.4557,"EPHEMERIS_TYPE":0,"NORAD_CAT_ID":52196,"ELEMENT_SET_NO":999,"REV_AT_EPOCH":24023,"BSTAR":0.00028048045,"MEAN_MOTION_DOT":0.0001399,"MEAN_MOTION_DDOT":0},{"OBJECT_NAME":"GLOBAL-19","OBJECT_ID":"2023-041B","EPOCH":"2026-07-08T01:41:01.711680","CLASSIFICATION_TYPE":"U","MEAN_MOTION":15.38551274,"ECCENTRICITY":0.00083942,"INCLINATION":42.0014,"RA_OF_ASC_NODE":80.0626,"ARG_OF_PERICENTER":170.296,"MEAN_ANOMALY":189.8043,"EPHEMERIS_TYPE":0,"NORAD_CAT_ID":55982,"ELEMENT_SET_NO":999,"REV_AT_EPOCH":18514,"BSTAR":0.00020987399,"MEAN_MOTION_DOT":0.00007915,"MEAN_MOTION_DDOT":0},{"OBJECT_NAME":"GLOBAL-5","OBJECT_ID":"2023-041C","EPOCH":"2026-07-08T22:43:21.785952","CLASSIFICATION_TYPE":"U","MEAN_MOTION":15.38581367,"ECCENTRICITY":0.000738,"INCLINATION":42.001,"RA_OF_ASC_NODE":74.4733,"ARG_OF_PERICENTER":171.8468,"MEAN_ANOMALY":188.2493,"EPHEMERIS_TYPE":0,"NORAD_CAT_ID":55983,"ELEMENT_SET_NO":999,"REV_AT_EPOCH":18528,"BSTAR":0.00024233258,"MEAN_MOTION_DOT":0.00009191,"MEAN_MOTION_DDOT":0}]}
