GLOBAL-2                
1 43812U 18099BG  26189.89501734  .00001944  00000+0  12742-3 0  9994
2 43812  97.3552 225.5056 0007680  84.2045 276.0059 15.08804460415184
GLOBAL-4                
1 44499U 19054E   26188.94504606  .00037372  00000+0  35230-3 0  9995
2 44499  45.0043 116.4508 0004325 145.7131 214.4047 15.66458654383612
GLOBAL-9                
1 47971U 21023G   26189.23960419  .00014816  00000+0  28943-3 0  9994
2 47971  44.9804 132.1289 0002648 115.2236 244.8929 15.47400053298203
GLOBAL-14               
1 49469U 21106A   26189.39907703  .00016839  00000+0  27992-3 0  9994
2 49469  42.0026 164.9224 0016473 177.8259 182.2659 15.51581768261421
GLOBAL-12               
1 49772U 21115BA  26189.61488811  .00027922  00000+0  41449-3 0  9998
2 49772  53.1955 301.4080 0002688  67.9164 292.2133 15.55014776259236
GLOBAL-13               
1 49773U 21115BB  26189.96365894  .00014899  00000+0  29896-3 0  9993
2 49773  53.1976 311.0028 0001357 154.0438 206.0639 15.46937078259135
GLOBAL-17               
1 49949U 21120A   26189.69937277  .00022584  00000+0  34941-3 0  9991
2 49949  41.9947 280.9991 0013851  40.6824 319.5053 15.53463778258247
GLOBAL-16               
1 49950U 21120B   26189.74250422  .00020507  00000+0  34438-3 0  9993
2 49950  41.9953 284.8855 0012084  30.2102 329.9437 15.51258857258192
GLOBAL-18               
1 52196U 22034B   26189.32064078  .00013990  00000+0  28048-3 0  9996
2 52196  52.9807 155.5800 0004246   5.6496 354.4557 15.47012171240239
GLOBAL-19               
1 55982U 23041B   26189.07015870  .00007915  00000+0  20987-3 0  9993
2 55982  42.0014  80.0626 0008394 170.2960 189.8043 15.38551274185146
GLOBAL-5                
1 55983U 23041C   26189.94677993  .00009191  00000+0  24233-3 0  9996
2 55983  42.0010  74.4733 0007380 171.8468 188.2493 15.38581367185286
